[{"OBJECT_NAME":"SNUGLITE","OBJECT_ID":"2018-099AC","EPOCH":"2026-03-09T16:09:06.907968","MEAN_MOTION":15.24835996,"ECCENTRICITY":0.00013388,"INCLINATION":97.4003,"RA_OF_ASC_NODE":124.0343,"ARG_OF_PERICENTER":280.5957,"MEAN_ANOMALY":79.5129,"EPHEMERIS_TYPE":0,"CLASSIFICATION_TYPE":"U","NORAD_CAT_ID":43784,"ELEMENT_SET_NO":999,"REV_AT_EPOCH":39814,"BSTAR":0.00055962727,"MEAN_MOTION_DOT":0.00013838,"MEAN_MOTION_DDOT":0},{"OBJECT_NAME":"FENGYUN 1C DEB","OBJECT_ID":"1999-025DXL","EPOCH":"2026-02-25T04:10:22.321344","MEAN_MOTION":15.11307044,"ECCENTRICITY":0.00591738,"INCLINATION":99.4273,"RA_OF_ASC_NODE":43.0945,"ARG_OF_PERICENTER":165.3437,"MEAN_ANOMALY":194.9519,"EPHEMERIS_TYPE":0,"CLASSIFICATION_TYPE":"U","NORAD_CAT_ID":36283,"ELEMENT_SET_NO":999,"REV_AT_EPOCH":67788,"BSTAR":0.0012995165,"MEAN_MOTION_DOT":0.00022794,"MEAN_MOTION_DDOT":0}]
